[{"OBJECT_NAME":"STARLINK-32382","OBJECT_ID":"2024-175R","EPOCH":"2026-03-09T13:34:44.591232","MEAN_MOTION":15.30201487,"ECCENTRICITY":0.0001075,"INCLINATION":53.1598,"RA_OF_ASC_NODE":194.6837,"ARG_OF_PERICENTER":81.8402,"MEAN_ANOMALY":278.272,"EPHEMERIS_TYPE":0,"CLASSIFICATION_TYPE":"U","NORAD_CAT_ID":61258,"ELEMENT_SET_NO":999,"REV_AT_EPOCH":8143,"BSTAR":-3.4919e-5,"MEAN_MOTION_DOT":-1.393e-5,"MEAN_MOTION_DDOT":0},{"OBJECT_NAME":"CZ-2F DEB","OBJECT_ID":"2026-024F","EPOCH":"2026-03-09T08:22:27.145056","MEAN_MOTION":15.03733997,"ECCENTRICITY":0.03102592,"INCLINATION":49.7935,"RA_OF_ASC_NODE":23.5997,"ARG_OF_PERICENTER":270.0739,"MEAN_ANOMALY":86.4659,"EPHEMERIS_TYPE":0,"CLASSIFICATION_TYPE":"U","NORAD_CAT_ID":67719,"ELEMENT_SET_NO":999,"REV_AT_EPOCH":419,"BSTAR":0.0038997444,"MEAN_MOTION_DOT":0.00165167,"MEAN_MOTION_DDOT":0}]
